STARLINK-1929
1 16788C 20074BB  21326.13057840  .00002043  00000-0  13676-3 0  3267
2 16788  53.0549 133.1602 0007103  99.0337 159.1916 15.06400880    14
